{
  "type": "FeatureCollection",
  "features": [
    {
      "type": "Feature",
      "properties": {
        "norad_id": 66661,
        "name": "SNUGLITE-III",
        "group": "last-30-days",
        "lat": 82.01746882920429,
        "lon": -150.4005059116368,
        "alt_km": 588.8123306856924,
        "timestamp": "2025-12-24T11:32:58.717619+00:00",
        "meta_object_name": "SNUGLITE-III",
        "meta_object_id": "2025-274M",
        "meta_epoch": "2025-12-24T01:30:20.935584",
        "meta_mean_motion": 14.93151637,
        "meta_eccentricity": 0.001342,
        "meta_inclination": 97.7403,
        "meta_ra_of_asc_node": 285.103,
        "meta_arg_of_pericenter": 240.3091,
        "meta_mean_anomaly": 119.6793,
        "meta_ephemeris_type": 0,
        "meta_classification_type": "U",
        "meta_norad_cat_id": 66661,
        "meta_element_set_no": 999,
        "meta_rev_at_epoch": 409,
        "meta_bstar": 0.00024793,
        "meta_mean_motion_dot": 2.534e-05,
        "meta_mean_motion_ddot": 0,
        "tle_line1": "1 66661U 25274M   25358.06274231  .00002534  00000+0  24793-3 0  9994",
        "tle_line2": "2 66661  97.7403 285.1030 0013420 240.3091 119.6793 14.93151637  4094"
      },
      "geometry": {
        "type": "Point",
        "coordinates": [
          -150.4005059116368,
          82.01746882920429
        ]
      }
    },
    {
      "type": "Feature",
      "properties": {
        "norad_id": 66662,
        "name": "2025-274N",
        "group": "last-30-days",
        "lat": 81.41109342492953,
        "lon": 169.74716435278165,
        "alt_km": 588.3906988220588,
        "timestamp": "2025-12-24T11:32:58.717631+00:00",
        "meta_object_name": "2025-274N",
        "meta_object_id": "2025-274N",
        "meta_epoch": "2025-12-24T01:28:51.112416",
        "meta_mean_motion": 14.93207397,
        "meta_eccentricity": 0.0013856,
        "meta_inclination": 97.7404,
        "meta_ra_of_asc_node": 285.1048,
        "meta_arg_of_pericenter": 240.0154,
        "meta_mean_anomaly": 119.9691,
        "meta_ephemeris_type": 0,
        "meta_classification_type": "U",
        "meta_norad_cat_id": 66662,
        "meta_element_set_no": 999,
        "meta_rev_at_epoch": 409,
        "meta_bstar": 0.00025902,
        "meta_mean_motion_dot": 2.654e-05,
        "meta_mean_motion_ddot": 0,
        "tle_line1": "1 66662U 25274N   25358.06170269  .00002654  00000+0  25902-3 0  9997",
        "tle_line2": "2 66662  97.7404 285.1048 0013856 240.0154 119.9691 14.93207397  4090"
      },
      "geometry": {
        "type": "Point",
        "coordinates": [
          169.74716435278165,
          81.41109342492953
        ]
      }
    },
    {
      "type": "Feature",
      "properties": {
        "norad_id": 66663,
        "name": "KSLV-II R/B",
        "group": "last-30-days",
        "lat": 24.90791289866092,
        "lon": 109.339027134825,
        "alt_km": 596.8524588482987,
        "timestamp": "2025-12-24T11:32:58.717642+00:00",
        "meta_object_name": "KSLV-II R/B",
        "meta_object_id": "2025-274P",
        "meta_epoch": "2025-12-23T05:59:25.426176",
        "meta_mean_motion": 14.97536982,
        "meta_eccentricity": 0.00600006,
        "meta_inclination": 97.7435,
        "meta_ra_of_asc_node": 284.4956,
        "meta_arg_of_pericenter": 282.7951,
        "meta_mean_anomaly": 76.657,
        "meta_ephemeris_type": 0,
        "meta_classification_type": "U",
        "meta_norad_cat_id": 66663,
        "meta_element_set_no": 999,
        "meta_rev_at_epoch": 398,
        "meta_bstar": 0.0011394408,
        "meta_mean_motion_dot": 0.00013749,
        "meta_mean_motion_ddot": 0,
        "tle_line1": "1 66663U 25274P   25357.24959984  .00013749  00000+0  11394-2 0  9992",
        "tle_line2": "2 66663  97.7435 284.4956 0060000 282.7951  76.6570 14.97536982  3987"
      },
      "geometry": {
        "type": "Point",
        "coordinates": [
          109.339027134825,
          24.90791289866092
        ]
      }
    },
    {
      "type": "Feature",
      "properties": {
        "norad_id": 66664,
        "name": "SOYUZ-MS 28",
        "group": "last-30-days",
        "lat": 40.13124930997231,
        "lon": 126.23222130861262,
        "alt_km": 413.0463431698081,
        "timestamp": "2025-12-24T11:32:58.717653+00:00",
        "meta_object_name": "SOYUZ-MS 28",
        "meta_object_id": "2025-275A",
        "meta_epoch": "2025-12-23T18:17:18.636000",
        "meta_mean_motion": 15.49761422,
        "meta_eccentricity": 0.0003172,
        "meta_inclination": 51.6321,
        "meta_ra_of_asc_node": 87.8933,
        "meta_arg_of_pericenter": 292.1344,
        "meta_mean_anomaly": 67.9308,
        "meta_ephemeris_type": 0,
        "meta_classification_type": "U",
        "meta_norad_cat_id": 66664,
        "meta_element_set_no": 999,
        "meta_rev_at_epoch": 415,
        "meta_bstar": 0.00020967,
        "meta_mean_motion_dot": 0.00011429,
        "meta_mean_motion_ddot": 0,
        "tle_line1": "1 66664U 25275A   25357.76202125  .00011429  00000+0  20967-3 0  9999",
        "tle_line2": "2 66664  51.6321  87.8933 0003172 292.1344  67.9308 15.49761422  4158"
      },
      "geometry": {
        "type": "Point",
        "coordinates": [
          126.23222130861262,
          40.13124930997231
        ]
      }
    },
    {
      "type": "Feature",
      "properties": {
        "norad_id": 66666,
        "name": "FORMOSAT-8A",
        "group": "last-30-days",
        "lat": -77.17756520453015,
        "lon": -145.98666223601523,
        "alt_km": 572.2731933648865,
        "timestamp": "2025-12-24T11:32:58.717664+00:00",
        "meta_object_name": "FORMOSAT-8A",
        "meta_object_id": "2025-276A",
        "meta_epoch": "2025-12-24T02:23:33.805248",
        "meta_mean_motion": 15.0035125,
        "meta_eccentricity": 0.0003961,
        "meta_inclination": 97.6576,
        "meta_ra_of_asc_node": 69.8747,
        "meta_arg_of_pericenter": 189.4037,
        "meta_mean_anomaly": 170.7113,
        "meta_ephemeris_type": 0,
        "meta_classification_type": "U",
        "meta_norad_cat_id": 66666,
        "meta_element_set_no": 999,
        "meta_rev_at_epoch": 379,
        "meta_bstar": 0.00037869,
        "meta_mean_motion_dot": 4.695e-05,
        "meta_mean_motion_ddot": 0,
        "tle_line1": "1 66666U 25276A   25358.09969682  .00004695  00000+0  37869-3 0  9993",
        "tle_line2": "2 66666  97.6576  69.8747 0003961 189.4037 170.7113 15.00351250  3795"
      },
      "geometry": {
        "type": "Point",
        "coordinates": [
          -145.98666223601523,
          -77.17756520453015
        ]
      }
    },
    {
      "type": "Feature",
      "properties": {
        "norad_id": 66667,
        "name": "PELICAN-5",
        "group": "last-30-days",
        "lat": 46.165306877553604,
        "lon": 62.228846098369175,
        "alt_km": 510.54422637420066,
        "timestamp": "2025-12-24T11:32:58.717675+00:00",
        "meta_object_name": "PELICAN-5",
        "meta_object_id": "2025-276B",
        "meta_epoch": "2025-12-24T03:25:56.534880",
        "meta_mean_motion": 15.17607662,
        "meta_eccentricity": 0.0002237,
        "meta_inclination": 97.4413,
        "meta_ra_of_asc_node": 69.7204,
        "meta_arg_of_pericenter": 208.3086,
        "meta_mean_anomaly": 151.8027,
        "meta_ephemeris_type": 0,
        "meta_classification_type": "U",
        "meta_norad_cat_id": 66667,
        "meta_element_set_no": 999,
        "meta_rev_at_epoch": 385,
        "meta_bstar": 0.00028421,
        "meta_mean_motion_dot": 5.648e-05,
        "meta_mean_motion_ddot": 0,
        "tle_line1": "1 66667U 25276B   25358.14301545  .00005648  00000+0  28421-3 0  9991",
        "tle_line2": "2 66667  97.4413  69.7204 0002237 208.3086 151.8027 15.17607662  3851"
      },
      "geometry": {
        "type": "Point",
        "coordinates": [
          62.228846098369175,
          46.165306877553604
        ]
      }
    },
    {
      "type": "Feature",
      "properties": {
        "norad_id": 66668,
        "name": "TRANSPORTER-15C",
        "group": "last-30-days",
        "lat": 26.084980020880252,
        "lon": 66.33778600087113,
        "alt_km": 479.5601674772979,
        "timestamp": "2025-12-24T11:32:58.717688+00:00",
        "meta_object_name": "TRANSPORTER-15C",
        "meta_object_id": "2025-276C",
        "meta_epoch": "2025-12-22T16:55:56.699040",
        "meta_mean_motion": 15.2172719,
        "meta_eccentricity": 0.00267972,
        "meta_inclination": 97.4316,
        "meta_ra_of_asc_node": 68.2383,
        "meta_arg_of_pericenter": 290.281,
        "meta_mean_anomaly": 69.5546,
        "meta_ephemeris_type": 0,
        "meta_classification_type": "U",
        "meta_norad_cat_id": 66668,
        "meta_element_set_no": 999,
        "meta_rev_at_epoch": 363,
        "meta_bstar": 0.088401316,
        "meta_mean_motion_dot": 0.02259996,
        "meta_mean_motion_ddot": 0,
        "tle_line1": "1 66668U 25276C   25356.70551735  .02259996  00000+0  88401-1 0  9991",
        "tle_line2": "2 66668  97.4316  68.2383 0026797 290.2810  69.5546 15.21727190  3639"
      },
      "geometry": {
        "type": "Point",
        "coordinates": [
          66.33778600087113,
          26.084980020880252
        ]
      }
    }
  ]
}